CCSDS_OMM_VERS = 2.0
CREATION_DATE  = 
ORIGINATOR     = 

OBJECT_NAME    = SL-16 R/B
OBJECT_ID      = 1998-043G
CENTER_NAME    = EARTH
REF_FRAME      = TEME
TIME_SYSTEM    = UTC
MEAN_ELEMENT_THEORY = SGP/SGP4

EPOCH          = 2026-03-05T14:12:25.417440
MEAN_MOTION    = 14.26048600
ECCENTRICITY   = .00104073
INCLINATION    = 98.8250
RA_OF_ASC_NODE = 17.9266
ARG_OF_PERICENTER = 31.7253
MEAN_ANOMALY   = 328.4552

EPHEMERIS_TYPE = 0
CLASSIFICATION_TYPE = U
NORAD_CAT_ID   = 25400
ELEMENT_SET_NO = 999
REV_AT_EPOCH   = 43840
BSTAR          = .58288682E-4
MEAN_MOTION_DOT = .94E-6
MEAN_MOTION_DDOT = 0

CCSDS_OMM_VERS = 2.0
CREATION_DATE  = 
ORIGINATOR     = 

OBJECT_NAME    = SL-16 R/B
OBJECT_ID      = 1998-045B
CENTER_NAME    = EARTH
REF_FRAME      = TEME
TIME_SYSTEM    = UTC
MEAN_ELEMENT_THEORY = SGP/SGP4

EPOCH          = 2026-03-05T14:49:31.349280
MEAN_MOTION    = 14.16189131
ECCENTRICITY   = .00064984
INCLINATION    = 71.0114
RA_OF_ASC_NODE = 190.1363
ARG_OF_PERICENTER = 14.1992
MEAN_ANOMALY   = 345.9313

EPHEMERIS_TYPE = 0
CLASSIFICATION_TYPE = U
NORAD_CAT_ID   = 25407
ELEMENT_SET_NO = 999
REV_AT_EPOCH   = 42652
BSTAR          = -.34074561E-4
MEAN_MOTION_DOT = -.115E-5
MEAN_MOTION_DDOT = 0

CCSDS_OMM_VERS = 2.0
CREATION_DATE  = 
ORIGINATOR     = 

OBJECT_NAME    = ISS (ZARYA)
OBJECT_ID      = 1998-067A
CENTER_NAME    = EARTH
REF_FRAME      = TEME
TIME_SYSTEM    = UTC
MEAN_ELEMENT_THEORY = SGP/SGP4

EPOCH          = 2026-03-05T13:50:21.177600
MEAN_MOTION    = 15.48460413
ECCENTRICITY   = .00081549
INCLINATION    = 51.6316
RA_OF_ASC_NODE = 92.6910
ARG_OF_PERICENTER = 159.9772
MEAN_ANOMALY   = 200.1537

EPHEMERIS_TYPE = 0
CLASSIFICATION_TYPE = U
NORAD_CAT_ID   = 25544
ELEMENT_SET_NO = 999
REV_AT_EPOCH   = 55569
BSTAR          = .16617363E-3
MEAN_MOTION_DOT = .8552E-4
MEAN_MOTION_DDOT = 0

CCSDS_OMM_VERS = 2.0
CREATION_DATE  = 
ORIGINATOR     = 

OBJECT_NAME    = CZ-4B R/B
OBJECT_ID      = 1999-025C
CENTER_NAME    = EARTH
REF_FRAME      = TEME
TIME_SYSTEM    = UTC
MEAN_ELEMENT_THEORY = SGP/SGP4

EPOCH          = 2026-03-05T14:02:11.732064
MEAN_MOTION    = 14.18264525
ECCENTRICITY   = .00369735
INCLINATION    = 98.6635
RA_OF_ASC_NODE = 108.9636
ARG_OF_PERICENTER = 358.4886
MEAN_ANOMALY   = 119.9081

EPHEMERIS_TYPE = 0
CLASSIFICATION_TYPE = U
NORAD_CAT_ID   = 25732
ELEMENT_SET_NO = 999
REV_AT_EPOCH   = 38758
BSTAR          = .6012487E-4
MEAN_MOTION_DOT = .81E-6
MEAN_MOTION_DDOT = 0

CCSDS_OMM_VERS = 2.0
CREATION_DATE  = 
ORIGINATOR     = 

OBJECT_NAME    = OKEAN-O
OBJECT_ID      = 1999-039A
CENTER_NAME    = EARTH
REF_FRAME      = TEME
TIME_SYSTEM    = UTC
MEAN_ELEMENT_THEORY = SGP/SGP4

EPOCH          = 2026-03-05T14:18:45.666432
MEAN_MOTION    = 14.80328064
ECCENTRICITY   = .00013854
INCLINATION    = 97.9450
RA_OF_ASC_NODE = 124.5293
ARG_OF_PERICENTER = 70.4826
MEAN_ANOMALY   = 289.6536

EPHEMERIS_TYPE = 0
CLASSIFICATION_TYPE = U
NORAD_CAT_ID   = 25860
ELEMENT_SET_NO = 999
REV_AT_EPOCH   = 43378
BSTAR          = .13199208E-3
MEAN_MOTION_DOT = .954E-5
MEAN_MOTION_DDOT = 0

CCSDS_OMM_VERS = 2.0
CREATION_DATE  = 
ORIGINATOR     = 

OBJECT_NAME    = SL-16 R/B
OBJECT_ID      = 1999-039B
CENTER_NAME    = EARTH
REF_FRAME      = TEME
TIME_SYSTEM    = UTC
MEAN_ELEMENT_THEORY = SGP/SGP4

EPOCH          = 2026-03-05T13:55:19.079616
MEAN_MOTION    = 14.81725365
ECCENTRICITY   = .00134252
INCLINATION    = 97.9973
RA_OF_ASC_NODE = 123.6827
ARG_OF_PERICENTER = 270.8436
MEAN_ANOMALY   = 89.1238

EPHEMERIS_TYPE = 0
CLASSIFICATION_TYPE = U
NORAD_CAT_ID   = 25861
ELEMENT_SET_NO = 999
REV_AT_EPOCH   = 43625
BSTAR          = .11373224E-3
MEAN_MOTION_DOT = .843E-5
MEAN_MOTION_DDOT = 0

CCSDS_OMM_VERS = 2.0
CREATION_DATE  = 
ORIGINATOR     = 

OBJECT_NAME    = DELTA 2 R/B
OBJECT_ID      = 1999-041E
CENTER_NAME    = EARTH
REF_FRAME      = TEME
TIME_SYSTEM    = UTC
MEAN_ELEMENT_THEORY = SGP/SGP4

EPOCH          = 2026-03-05T09:45:28.687392
MEAN_MOTION    = 14.11824182
ECCENTRICITY   = .05023494
INCLINATION    = 51.7641
RA_OF_ASC_NODE = 318.3878
ARG_OF_PERICENTER = 335.7931
MEAN_ANOMALY   = 22.0116

EPHEMERIS_TYPE = 0
CLASSIFICATION_TYPE = U
NORAD_CAT_ID   = 25876
ELEMENT_SET_NO = 999
REV_AT_EPOCH   = 36242
BSTAR          = .31215802E-3
MEAN_MOTION_DOT = .1706E-4
MEAN_MOTION_DDOT = 0

CCSDS_OMM_VERS = 2.0
CREATION_DATE  = 
ORIGINATOR     = 

OBJECT_NAME    = HELIOS 1B
OBJECT_ID      = 1999-064A
CENTER_NAME    = EARTH
REF_FRAME      = TEME
TIME_SYSTEM    = UTC
MEAN_ELEMENT_THEORY = SGP/SGP4

EPOCH          = 2026-03-05T14:39:53.668512
MEAN_MOTION    = 14.87679577
ECCENTRICITY   = .00025246
INCLINATION    = 98.1698
RA_OF_ASC_NODE = 326.7346
ARG_OF_PERICENTER = 80.2953
MEAN_ANOMALY   = 279.8547

EPHEMERIS_TYPE = 0
CLASSIFICATION_TYPE = U
NORAD_CAT_ID   = 25977
ELEMENT_SET_NO = 999
REV_AT_EPOCH   = 68465
BSTAR          = .34149387E-3
MEAN_MOTION_DOT = .3052E-4
MEAN_MOTION_DDOT = 0

CCSDS_OMM_VERS = 2.0
CREATION_DATE  = 
ORIGINATOR     = 

OBJECT_NAME    = TERRA
OBJECT_ID      = 1999-068A
CENTER_NAME    = EARTH
REF_FRAME      = TEME
TIME_SYSTEM    = UTC
MEAN_ELEMENT_THEORY = SGP/SGP4

EPOCH          = 2026-03-05T14:59:59.547264
MEAN_MOTION    = 14.61009879
ECCENTRICITY   = .00024539
INCLINATION    = 97.9601
RA_OF_ASC_NODE = 118.2148
ARG_OF_PERICENTER = 161.1551
MEAN_ANOMALY   = 359.5896

EPHEMERIS_TYPE = 0
CLASSIFICATION_TYPE = U
NORAD_CAT_ID   = 25994
ELEMENT_SET_NO = 999
REV_AT_EPOCH   = 39448
BSTAR          = .13767159E-3
MEAN_MOTION_DOT = .631E-5
MEAN_MOTION_DDOT = 0

CCSDS_OMM_VERS = 2.0
CREATION_DATE  = 
ORIGINATOR     = 

OBJECT_NAME    = SL-16 R/B
OBJECT_ID      = 2000-006B
CENTER_NAME    = EARTH
REF_FRAME      = TEME
TIME_SYSTEM    = UTC
MEAN_ELEMENT_THEORY = SGP/SGP4

EPOCH          = 2026-03-05T11:46:44.043456
MEAN_MOTION    = 14.15825287
ECCENTRICITY   = .00170838
INCLINATION    = 71.0012
RA_OF_ASC_NODE = 106.6669
ARG_OF_PERICENTER = 196.0454
MEAN_ANOMALY   = 164.0131

EPHEMERIS_TYPE = 0
CLASSIFICATION_TYPE = U
NORAD_CAT_ID   = 26070
ELEMENT_SET_NO = 999
REV_AT_EPOCH   = 34796
BSTAR          = .90116078E-4
MEAN_MOTION_DOT = .13E-5
MEAN_MOTION_DDOT = 0

CCSDS_OMM_VERS = 2.0
CREATION_DATE  = 
ORIGINATOR     = 

OBJECT_NAME    = TITAN 4B R/B
OBJECT_ID      = 2000-047B
CENTER_NAME    = EARTH
REF_FRAME      = TEME
TIME_SYSTEM    = UTC
MEAN_ELEMENT_THEORY = SGP/SGP4

EPOCH          = 2026-03-05T12:32:00.927744
MEAN_MOTION    = 15.09513500
ECCENTRICITY   = .00382002
INCLINATION    = 67.9890
RA_OF_ASC_NODE = 52.2280
ARG_OF_PERICENTER = 40.3176
MEAN_ANOMALY   = 320.0794

EPHEMERIS_TYPE = 0
CLASSIFICATION_TYPE = U
NORAD_CAT_ID   = 26474
ELEMENT_SET_NO = 999
REV_AT_EPOCH   = 39228
BSTAR          = .36288956E-3
MEAN_MOTION_DOT = .58E-4
MEAN_MOTION_DDOT = 0

CCSDS_OMM_VERS = 2.0
CREATION_DATE  = 
ORIGINATOR     = 

OBJECT_NAME    = ENVISAT
OBJECT_ID      = 2002-009A
CENTER_NAME    = EARTH
REF_FRAME      = TEME
TIME_SYSTEM    = UTC
MEAN_ELEMENT_THEORY = SGP/SGP4

EPOCH          = 2026-03-05T14:25:17.962176
MEAN_MOTION    = 14.39035217
ECCENTRICITY   = .000133
INCLINATION    = 98.3723
RA_OF_ASC_NODE = 18.2957
ARG_OF_PERICENTER = 84.3675
MEAN_ANOMALY   = 89.0991

EPHEMERIS_TYPE = 0
CLASSIFICATION_TYPE = U
NORAD_CAT_ID   = 27386
ELEMENT_SET_NO = 999
REV_AT_EPOCH   = 25858
BSTAR          = .78600219E-4
MEAN_MOTION_DOT = .2E-5
MEAN_MOTION_DDOT = 0

