SL-16 R/B               
1 25400U 98043G   26064.59196085  .00000094  00000+0  58289-4 0  9994
2 25400  98.8250  17.9266 0010407  31.7253 328.4552 14.26048600438408
SL-16 R/B               
1 25407U 98045B   26064.61772395 -.00000115  00000+0 -34075-4 0  9993
2 25407  71.0114 190.1363 0006498  14.1992 345.9313 14.16189131426522
ISS (ZARYA)             
1 25544U 98067A   26064.57663400  .00008552  00000+0  16617-3 0  9992
2 25544  51.6316  92.6910 0008154 159.9772 200.1537 15.48460413555693
CZ-4B R/B               
1 25732U 99025C   26064.58485801  .00000081  00000+0  60125-4 0  9997
2 25732  98.6635 108.9636 0036973 358.4886 119.9081 14.18264525387589
OKEAN-O                 
1 25860U 99039A   26064.59636188  .00000954  00000+0  13199-3 0  9998
2 25860  97.9450 124.5293 0001385  70.4826 289.6536 14.80328064433787
SL-16 R/B               
1 25861U 99039B   26064.58008194  .00000843  00000+0  11373-3 0  9997
2 25861  97.9973 123.6827 0013425 270.8436  89.1238 14.81725365436255
DELTA 2 R/B             
1 25876U 99041E   26064.40658203  .00001706  00000+0  31216-3 0  9996
2 25876  51.7641 318.3878 0502349 335.7931  22.0116 14.11824182362427
HELIOS 1B               
1 25977U 99064A   26064.61103783  .00003052  00000+0  34149-3 0  9998
2 25977  98.1698 326.7346 0002524  80.2953 279.8547 14.87679577684656
TERRA                   
1 25994U 99068A   26064.62499476  .00000631  00000+0  13767-3 0  9992
2 25994  97.9601 118.2148 0002453 161.1551 359.5896 14.61009879394480
SL-16 R/B               
1 26070U 00006B   26064.49078754  .00000130  00000+0  90116-4 0  9997
2 26070  71.0012 106.6669 0017083 196.0454 164.0131 14.15825287347968
TITAN 4B R/B            
1 26474U 00047B   26064.52223296  .00005800  00000+0  36289-3 0  9996
2 26474  67.9890  52.2280 0038200  40.3176 320.0794 15.09513500392285
ENVISAT                 
1 27386U 02009A   26064.60090234  .00000200  00000+0  78600-4 0  9995
2 27386  98.3723  18.2957 0001330  84.3675  89.0991 14.39035217258581
